NORAD_CAT_ID,OBJECT_NAME,OBJECT_TYPE,EPOCH,MEAN_MOTION,ECCENTRICITY,INCLINATION,RA_OF_ASC_NODE,ARG_OF_PERICENTER,MEAN_ANOMALY,BSTAR,MEAN_MOTION_DOT,MEAN_MOTION_DDOT,TLE_LINE0,TLE_LINE1,TLE_LINE2,SEMIMAJOR_AXIS,PERIOD,APOGEE,PERIGEE,DECAYED
51991.0,STARLINK-3652,PAYLOAD,2023-08-02 16:31:29,15.08846417,8.89e-05,53.2186,343.8424,95.8358,264.2735,8.7244e-05,1.101e-05,0.0,0 STARLINK-3652,1 51991U 22025AM  23214.68853351  .00001101  00000-0  87244-4 0  9999,2 51991  53.2186 343.8424 0000889  95.8358 264.2735 15.08846417 78731,6917.861,95.437,540.341,539.111,0.0
51991.0,STARLINK-3652,PAYLOAD,2023-08-03 08:25:21,15.08840825,9.95e-05,53.2185,340.8687,97.2987,262.8119,4.2186e-05,3.84e-06,0.0,0 STARLINK-3652,1 51991U 22025AM  23215.35093773  .00000384  00000-0  42186-4 0  9996,2 51991  53.2185 340.8687 0000995  97.2987 262.8119 15.08840825 78838,6917.878,95.438,540.431,539.055,0.0
51991.0,STARLINK-3652,PAYLOAD,2023-08-04 14:37:40,15.08839663,0.0001111,53.2188,335.2193,93.0438,267.0681,2.1208e-05,5e-07,0.0,0 STARLINK-3652,1 51991U 22025AM  23216.60950086  .00000050  00000-0  21208-4 0  9996,2 51991  53.2188 335.2193 0001111  93.0438 267.0681 15.08839663 79028,6917.881,95.438,540.515,538.978,0.0
51991.0,STARLINK-3652,PAYLOAD,2023-08-04 19:23:49,15.08845944,0.0001006,53.2184,334.3265,94.1518,265.959,7.4096e-05,8.92e-06,0.0,0 STARLINK-3652,1 51991U 22025AM  23216.80821482  .00000892  00000-0  74096-4 0  9992,2 51991  53.2184 334.3265 0001006  94.1518 265.9590 15.08845944 79056,6917.862,95.437,540.423,539.031,0.0
51991.0,STARLINK-3652,PAYLOAD,2023-08-06 00:00:48,15.08813212,0.000111,53.2189,328.9741,96.703,263.4089,-0.00015623,-2.771e-05,0.0,0 STARLINK-3652,1 51991U 22025AM  23218.00055956 -.00002771  00000-0 -15623-3 0  9991,2 51991  53.2189 328.9741 0001110  96.7030 263.4089 15.08813212 79231,6917.962,95.439,540.595,539.059,0.0
51991.0,STARLINK-3652,PAYLOAD,2023-08-06 11:08:30,15.08822252,8.78e-05,53.2187,326.8911,98.3686,261.7406,-0.00012796,-2.323e-05,0.0,0 STARLINK-3652,1 51991U 22025AM  23218.46423762 -.00002323  00000-0 -12796-3 0  9996,2 51991  53.2187 326.8911 0000878  98.3686 261.7406 15.08822252 79306,6917.935,95.439,540.407,539.192,0.0
51991.0,STARLINK-3652,PAYLOAD,2023-08-06 23:51:34,15.08833795,9.56e-05,53.2185,324.5137,96.0272,264.0829,-2.1143e-05,-6.24e-06,0.0,0 STARLINK-3652,1 51991U 22025AM  23218.99415126 -.00000624  00000-0 -21143-4 0  9998,2 51991  53.2185 324.5137 0000956  96.0272 264.0829 15.08833795 79389,6917.899,95.438,540.426,539.103,0.0
51991.0,STARLINK-3652,PAYLOAD,2023-08-07 09:23:52,15.08846526,9.31e-05,53.2183,322.7302,98.3949,261.7149,7.1305e-06,-1.74e-06,0.0,0 STARLINK-3652,1 51991U 22025AM  23219.39158497 -.00000174  00000-0  71305-5 0  9993,2 51991  53.2183 322.7302 0000931  98.3949 261.7149 15.08846526 79442,6917.86,95.437,540.369,539.081,0.0
51991.0,STARLINK-3652,PAYLOAD,2023-08-07 15:45:25,15.08852247,9.82e-05,53.2174,321.541,98.8058,261.3046,0.00020024,2.902e-05,0.0,0 STARLINK-3652,1 51991U 22025AM  23219.65654070  .00002902  00000-0  20024-3 0  9990,2 51991  53.2174 321.5410 0000982  98.8058 261.3046 15.08852247 79484,6917.843,95.437,540.387,539.029,0.0
51991.0,STARLINK-3652,PAYLOAD,2023-08-08 10:50:03,15.08841891,9.86e-05,53.2166,317.9732,106.7064,253.4036,0.0002828,4.216e-05,0.0,0 STARLINK-3652,1 51991U 22025AM  23220.45142868  .00004216  00000-0  28280-3 0  9999,2 51991  53.2166 317.9732 0000986 106.7064 253.4036 15.08841891 79609,6917.875,95.437,540.422,539.058,0.0
51991.0,STARLINK-3652,PAYLOAD,2023-08-08 14:00:49,15.08850166,0.0001046,53.2173,317.3782,78.6993,281.4117,0.00040248,6.125e-05,0.0,0 STARLINK-3652,1 51991U 22025AM  23220.58390736  .00006125  00000-0  40248-3 0  9991,2 51991  53.2173 317.3782 0001046  78.6993 281.4117 15.08850166 79620,6917.849,95.437,540.438,538.991,0.0
51991.0,STARLINK-3652,PAYLOAD,2023-08-09 09:05:27,15.08839391,0.0001066,53.2168,313.8102,83.7238,276.3875,-9.9668e-07,-3.04e-06,0.0,0 STARLINK-3652,1 51991U 22025AM  23221.37878922 -.00000304  00000-0 -99668-6 0  9995,2 51991  53.2168 313.8102 0001066  83.7238 276.3875 15.08839391 79746,6917.882,95.438,540.485,539.01,0.0
51991.0,STARLINK-3652,PAYLOAD,2023-08-10 12:07:00,15.08848499,8.27e-05,53.2172,308.7543,86.3671,273.7416,0.00012606,1.72e-05,0.0,0 STARLINK-3652,1 51991U 22025AM  23222.50486564  .00001720  00000-0  12606-3 0  9993,2 51991  53.2172 308.7543 0000827  86.3671 273.7416 15.08848499 79917,6917.854,95.437,540.292,539.147,0.0
51991.0,STARLINK-3652,PAYLOAD,2023-08-11 10:22:25,15.08831963,8.63e-05,53.2173,304.5921,84.9953,275.1138,0.000274,4.075e-05,0.0,0 STARLINK-3652,1 51991U 22025AM  23223.43223411  .00004075  00000-0  27400-3 0  9990,2 51991  53.2173 304.5921 0000863  84.9953 275.1138 15.08831963 80051,6917.905,95.438,540.367,539.173,0.0
51991.0,STARLINK-3652,PAYLOAD,2023-08-11 16:43:56,15.08846245,9.29e-05,53.2172,303.4009,92.7908,267.319,0.0001628,2.305e-05,0.0,0 STARLINK-3652,1 51991U 22025AM  23223.69718614  .00002305  00000-0  16280-3 0  9990,2 51991  53.2172 303.4009 0000929  92.7908 267.3190 15.08846245 80099,6917.861,95.437,540.369,539.084,0.0
51991.0,STARLINK-3652,PAYLOAD,2023-08-12 10:13:11,15.08842823,0.0001487,53.2198,300.1278,126.4192,233.6937,-1.8783e-05,-5.87e-06,0.0,0 STARLINK-3652,1 51991U 22025AM  23224.42582930 -.00000587  00000-0 -18783-4 0  9995,2 51991  53.2198 300.1278 0001487 126.4192 233.6937 15.08842823 80205,6917.872,95.437,540.765,538.708,0.0
51991.0,STARLINK-3652,PAYLOAD,2023-08-12 16:34:43,15.0885085,8.51e-05,53.2185,298.941,83.2068,276.9021,6.0843e-05,6.81e-06,0.0,0 STARLINK-3652,1 51991U 22025AM  23224.69078246  .00000681  00000-0  60843-4 0  9991,2 51991  53.2185 298.9410 0000851  83.2068 276.9021 15.08850850 80246,6917.847,95.437,540.301,539.124,0.0
51991.0,STARLINK-3652,PAYLOAD,2023-08-13 05:17:49,15.08833565,8.64e-05,53.2176,296.5614,100.8656,259.2433,5.8023e-05,6.36e-06,0.0,0 STARLINK-3652,1 51991U 22025AM  23225.22071424  .00000636  00000-0  58023-4 0  9999,2 51991  53.2176 296.5614 0000864 100.8656 259.2433 15.08833565 80323,6917.9,95.438,540.363,539.167,0.0
51991.0,STARLINK-3652,PAYLOAD,2023-08-13 11:39:21,15.08841097,9.05e-05,53.2173,295.3725,94.7679,265.3416,3.579e-05,2.82e-06,0.0,0 STARLINK-3652,1 51991U 22025AM  23225.48567078  .00000282  00000-0  35790-4 0  9995,2 51991  53.2173 295.3725 0000905  94.7679 265.3416 15.08841097 80364,6917.877,95.437,540.368,539.116,0.0
51991.0,STARLINK-3652,PAYLOAD,2023-08-14 16:16:18,15.0884736,9.41e-05,53.2165,290.0203,89.7458,270.3642,0.00012747,1.742e-05,0.0,0 STARLINK-3652,1 51991U 22025AM  23226.67798757  .00001742  00000-0  12747-3 0  9995,2 51991  53.2165 290.0203 0000941  89.7458 270.3642 15.08847360 80543,6917.858,95.437,540.374,539.072,0.0
51991.0,STARLINK-3652,PAYLOAD,2023-08-14 21:02:27,15.08839122,2.28e-05,53.2177,289.1304,78.5224,281.5794,-2.8372e-05,-7.39e-06,0.0,0 STARLINK-3652,1 51991U 22025AM  23226.87670867 -.00000739  00000-0 -28372-4 0  9997,2 51991  53.2177 289.1304 0000228  78.5224 281.5794 15.08839122 80574,6917.883,95.438,539.906,539.59,0.0
51991.0,STARLINK-3652,PAYLOAD,2023-08-15 20:53:15,15.08835672,0.000123,53.2181,284.6666,82.0744,278.0387,1.1766e-05,-1.01e-06,0.0,0 STARLINK-3652,1 51991U 22025AM  23227.87031593 -.00000101  00000-0  11766-4 0  9996,2 51991  53.2181 284.6666 0001230  82.0744 278.0387 15.08835672 80723,6917.894,95.438,540.61,538.908,0.0
51991.0,STARLINK-3652,PAYLOAD,2023-08-16 15:57:52,15.08846706,0.0001265,53.2172,281.0984,88.9882,271.1255,-5.3964e-05,-1.147e-05,0.0,0 STARLINK-3652,1 51991U 22025AM  23228.66519178 -.00001147  00000-0 -53964-4 0  9992,2 51991  53.2172 281.0984 0001265  88.9882 271.1255 15.08846706 80844,6917.86,95.437,540.6,538.85,0.0
51991.0,STARLINK-3652,PAYLOAD,2023-08-18 02:56:22,15.08836988,0.000105,53.2152,274.5575,83.0974,277.0137,5.9746e-05,6.63e-06,0.0,0 STARLINK-3652,1 51991U 22025AM  23230.12247729  .00000663  00000-0  59746-4 0  9990,2 51991  53.2152 274.5575 0001050  83.0974 277.0137 15.08836988 81065,6917.89,95.438,540.481,539.028,0.0
51991.0,STARLINK-3652,PAYLOAD,2023-08-18 14:04:03,15.0884688,0.0001114,53.215,272.4754,85.8231,274.2889,0.00024743,3.653e-05,0.0,0 STARLINK-3652,1 51991U 22025AM  23230.58615393  .00003653  00000-0  24743-3 0  9996,2 51991  53.2150 272.4754 0001114  85.8231 274.2889 15.08846880 81139,6917.859,95.437,540.495,538.954,0.0
51991.0,STARLINK-3652,PAYLOAD,2023-08-19 09:08:41,15.08845428,0.000123,53.2154,268.907,82.2532,277.86,0.00023602,3.471e-05,0.0,0 STARLINK-3652,1 51991U 22025AM  23231.38103528  .00003471  00000-0  23602-3 0  9998,2 51991  53.2154 268.9070 0001230  82.2532 277.8600 15.08845428 81258,6917.864,95.437,540.58,538.878,0.0
51991.0,STARLINK-3652,PAYLOAD,2023-08-20 08:59:28,15.0883866,0.0001282,53.2163,264.445,90.4952,269.6187,5.6901e-05,6.18e-06,0.0,0 STARLINK-3652,1 51991U 22025AM  23232.37463835  .00000618  00000-0  56901-4 0  9997,2 51991  53.2163 264.4450 0001282  90.4952 269.6187 15.08838660 81401,6917.884,95.438,540.636,538.863,0.0
51991.0,STARLINK-3652,PAYLOAD,2023-08-22 07:05:39,15.08838313,0.000124,53.217,255.8221,93.6014,266.512,9.0206e-05,1.148e-05,0.0,0 STARLINK-3652,1 51991U 22025AM  23234.29560135  .00001148  00000-0  90206-4 0  9996,2 51991  53.2170 255.8221 0001240  93.6014 266.5120 15.08838313 81696,6917.886,95.438,540.608,538.893,0.0
51991.0,STARLINK-3652,PAYLOAD,2023-08-23 11:42:36,15.08840542,0.0001242,53.2164,250.4697,92.5986,267.5148,6.9516e-05,8.19e-06,0.0,0 STARLINK-3652,1 51991U 22025AM  23235.48792137  .00000819  00000-0  69516-4 0  9991,2 51991  53.2164 250.4697 0001242  92.5986 267.5148 15.08840542 81873,6917.879,95.438,540.603,538.885,0.0
51991.0,STARLINK-3652,PAYLOAD,2023-08-24 13:08:46,15.0884099,0.0001215,53.216,245.7112,93.2246,266.8886,5.3087e-05,5.57e-06,0.0,0 STARLINK-3652,1 51991U 22025AM  23236.54776261  .00000557  00000-0  53087-4 0  9994,2 51991  53.2160 245.7112 0001215  93.2246 266.8886 15.08840990 82032,6917.877,95.437,540.583,538.902,0.0
